NORAD_CAT_ID,OBJECT_NAME,OBJECT_TYPE,EPOCH,MEAN_MOTION,ECCENTRICITY,INCLINATION,RA_OF_ASC_NODE,ARG_OF_PERICENTER,MEAN_ANOMALY,BSTAR,MEAN_MOTION_DOT,MEAN_MOTION_DDOT,TLE_LINE0,TLE_LINE1,TLE_LINE2,SEMIMAJOR_AXIS,PERIOD,APOGEE,PERIGEE,DECAYED
56782.0,STARLINK-6352,PAYLOAD,2024-01-18 16:29:46,14.98329076,0.0002924,70.0002,133.7756,266.5817,93.5008,0.00010185,1.122e-05,0.0,0 STARLINK-6352,1 56782U 23078R   24018.68733828  .00001122  00000-0  10185-3 0  9992,2 56782  70.0002 133.7756 0002924 266.5817  93.5008 14.98329076 36444,6950.196,96.107,574.093,570.029,0.0
56782.0,STARLINK-6352,PAYLOAD,2024-01-19 13:19:30,14.98331907,0.000287,70.0001,131.5876,260.1127,99.9709,5.7874e-05,5.98e-06,0.0,0 STARLINK-6352,1 56782U 23078R   24019.55521607  .00000598  00000-0  57874-4 0  9992,2 56782  70.0001 131.5876 0002870 260.1127  99.9709 14.98331907 36316,6950.187,96.107,574.047,570.057,0.0
56782.0,STARLINK-6352,PAYLOAD,2024-01-19 16:31:46,14.9833635,0.0002742,70.0005,131.2507,263.4213,96.6633,6.7169e-05,7.09e-06,0.0,0 STARLINK-6352,1 56782U 23078R   24019.68873259  .00000709  00000-0  67169-4 0  9991,2 56782  70.0005 131.2507 0002742 263.4213  96.6633 14.98336350 36595,6950.173,96.107,573.944,570.133,0.0
56782.0,STARLINK-6352,PAYLOAD,2024-01-20 11:45:23,14.98327198,0.0002629,70.0007,129.231,260.1956,99.8906,-4.2256e-05,-5.97e-06,0.0,0 STARLINK-6352,1 56782U 23078R   24020.48985986 -.00000597  00000-0 -42256-4 0  9999,2 56782  70.0007 129.2310 0002629 260.1956  99.8906 14.98327198 36710,6950.202,96.107,573.894,570.239,0.0
56782.0,STARLINK-6352,PAYLOAD,2024-01-20 14:57:40,14.98326337,0.0002637,70.0007,128.8945,260.5824,99.5038,-5.0722e-05,-6.98e-06,0.0,0 STARLINK-6352,1 56782U 23078R   24020.62338082 -.00000698  00000-0 -50722-4 0  9993,2 56782  70.0007 128.8945 0002637 260.5824  99.5038 14.98326337 36476,6950.204,96.107,573.902,570.236,0.0
56782.0,STARLINK-6352,PAYLOAD,2024-01-20 16:33:48,14.98326995,0.0002638,70.0007,128.7262,261.1531,98.933,-4.3279e-05,-6.09e-06,0.0,0 STARLINK-6352,1 56782U 23078R   24020.69014029 -.00000609  00000-0 -43279-4 0  9993,2 56782  70.0007 128.7262 0002638 261.1531  98.9330 14.98326995 36489,6950.202,96.107,573.901,570.234,0.0
56782.0,STARLINK-6352,PAYLOAD,2024-01-21 06:59:00,14.98328886,0.0002789,70.0002,127.2121,264.1868,95.8973,-2.4377e-05,-3.84e-06,0.0,0 STARLINK-6352,1 56782U 23078R   24021.29097804 -.00000384  00000-0 -24377-4 0  9990,2 56782  70.0002 127.2121 0002789 264.1868  95.8973 14.98328886 36575,6950.196,96.107,574.0,570.123,0.0
56782.0,STARLINK-6352,PAYLOAD,2024-01-21 11:47:24,14.98331623,0.0002674,70.0007,126.7066,262.2663,97.8193,-4.9117e-05,-6.79e-06,0.0,0 STARLINK-6352,1 56782U 23078R   24021.49125697 -.00000679  00000-0 -49117-4 0  9990,2 56782  70.0007 126.7066 0002674 262.2663  97.8193 14.98331623 36868,6950.188,96.107,573.911,570.194,0.0
56782.0,STARLINK-6352,PAYLOAD,2024-01-21 16:35:48,14.98334379,0.0002772,70.0005,126.2021,262.8287,97.2557,1.5042e-05,8.7e-07,0.0,0 STARLINK-6352,1 56782U 23078R   24021.69153291  .00000087  00000-0  15042-4 0  9994,2 56782  70.0005 126.2021 0002772 262.8287  97.2557 14.98334379 36633,6950.179,96.107,573.971,570.118,0.0
56782.0,STARLINK-6352,PAYLOAD,2024-01-22 07:01:01,14.98361501,0.0002814,70.0008,124.6863,256.2429,103.8417,-0.00053985,-6.534e-05,0.0,0 STARLINK-6352,1 56782U 23078R   24022.29237402 -.00006534  00000-0 -53985-3 0  9990,2 56782  70.0008 124.6863 0002814 256.2429 103.8417 14.98361501 36720,6950.095,96.105,573.916,570.005,0.0
56782.0,STARLINK-6352,PAYLOAD,2024-01-22 11:49:25,14.98324522,0.0002627,70.0006,124.1813,258.1804,101.906,1.5149e-05,8.8e-07,0.0,0 STARLINK-6352,1 56782U 23078R   24022.49265850  .00000088  00000-0  15149-4 0  9997,2 56782  70.0006 124.1813 0002627 258.1804 101.9060 14.98324522 37016,6950.21,96.107,573.901,570.249,0.0
56782.0,STARLINK-6352,PAYLOAD,2024-01-22 16:37:49,14.98326485,0.0002691,70.0007,123.6761,261.1428,98.9426,5.4053e-05,5.52e-06,0.0,0 STARLINK-6352,1 56782U 23078R   24022.69293663  .00000552  00000-0  54053-4 0  9995,2 56782  70.0007 123.6761 0002691 261.1428  98.9426 14.98326485 36784,6950.204,96.107,573.939,570.198,0.0
56782.0,STARLINK-6352,PAYLOAD,2024-01-23 07:03:01,14.98333105,0.0002641,70.0004,122.1611,256.936,103.1504,3.2077e-05,2.9e-06,0.0,0 STARLINK-6352,1 56782U 23078R   24023.29377220  .00000290  00000-0  32077-4 0  9995,2 56782  70.0004 122.1611 0002641 256.9360 103.1504 14.98333105 36874,6950.183,96.107,573.884,570.213,0.0
56782.0,STARLINK-6352,PAYLOAD,2024-01-23 10:15:17,14.98334729,0.0002677,70.0004,121.8247,255.3541,104.7322,2.0029e-05,1.46e-06,0.0,0 STARLINK-6352,1 56782U 23078R   24023.42729116  .00000146  00000-0  20029-4 0  9999,2 56782  70.0004 121.8247 0002677 255.3541 104.7322 14.98334729 37158,6950.178,96.107,573.904,570.183,0.0
56782.0,STARLINK-6352,PAYLOAD,2024-01-23 16:39:50,14.98335574,0.0002671,70.0006,121.1516,261.5706,98.5151,5.9844e-05,6.21e-06,0.0,0 STARLINK-6352,1 56782U 23078R   24023.69432897  .00000621  00000-0  59844-4 0  9990,2 56782  70.0006 121.1516 0002671 261.5706  98.5151 14.98335574 36932,6950.176,96.107,573.897,570.184,0.0
56782.0,STARLINK-6352,PAYLOAD,2024-01-24 11:53:24,14.98360991,0.0002451,70.0004,119.1317,254.2526,105.8363,0.0003569,4.171e-05,0.0,0 STARLINK-6352,1 56782U 23078R   24024.49542458  .00004171  00000-0  35690-3 0  9990,2 56782  70.0004 119.1317 0002451 254.2526 105.8363 14.98360991 37312,6950.097,96.105,573.666,570.259,0.0
56782.0,STARLINK-6352,PAYLOAD,2024-01-24 13:29:32,14.98367044,0.0002355,70.0025,118.9656,215.4706,144.6296,0.00045971,5.402e-05,0.0,0 STARLINK-6352,1 56782U 23078R   24024.56217656  .00005402  00000-0  45971-3 0  9998,2 56782  70.0025 118.9656 0002355 215.4706 144.6296 14.98367044 37064,6950.078,96.105,573.58,570.307,0.0
56782.0,STARLINK-6352,PAYLOAD,2024-01-24 16:41:44,14.98405421,0.0002405,70.0004,118.6266,277.3571,82.7314,0.00082799,9.819e-05,0.0,0 STARLINK-6352,1 56782U 23078R   24024.69565971  .00009819  00000-0  82799-3 0  9993,2 56782  70.0004 118.6266 0002405 277.3571  82.7314 14.98405421 37344,6949.96,96.102,573.496,570.153,0.0
56782.0,STARLINK-6352,PAYLOAD,2024-01-25 11:55:28,14.98313137,0.0003068,69.9991,116.6068,268.0882,91.9926,-0.0003535,-4.307e-05,0.0,0 STARLINK-6352,1 56782U 23078R   24025.49685787 -.00004307  00000-0 -35350-3 0  9990,2 56782  69.9991 116.6068 0003068 268.0882  91.9926 14.98313137 37468,6950.245,96.108,574.242,569.978,0.0
56782.0,STARLINK-6352,PAYLOAD,2024-01-25 13:31:36,14.98308554,0.0002552,70.0007,116.4401,250.292,109.7964,-0.00036271,-4.415e-05,0.0,0 STARLINK-6352,1 56782U 23078R   24025.56362041 -.00004415  00000-0 -36271-3 0  9996,2 56782  70.0007 116.4401 0002552 250.2920 109.7964 14.98308554 37211,6950.259,96.108,573.898,570.351,0.0
56782.0,STARLINK-6352,PAYLOAD,2024-01-25 15:07:44,14.98310338,0.0002743,70.0,116.2712,260.2988,99.7861,-0.00035011,-4.266e-05,0.0,0 STARLINK-6352,1 56782U 23078R   24025.63038044 -.00004266  00000-0 -35011-3 0  9992,2 56782  70.0000 116.2712 0002743 260.2988  99.7861 14.98310338 37222,6950.254,96.108,574.025,570.212,0.0
56782.0,STARLINK-6352,PAYLOAD,2024-01-26 11:57:29,14.98311465,0.0002681,69.9999,114.0824,263.1343,96.9511,-0.0001167,-1.484e-05,0.0,0 STARLINK-6352,1 56782U 23078R   24026.49826045 -.00001484  00000-0 -11670-3 0  9997,2 56782  69.9999 114.0824 0002681 263.1343  96.9511 14.98311465 37610,6950.25,96.108,573.979,570.252,0.0
56782.0,STARLINK-6352,PAYLOAD,2024-01-26 13:33:37,14.98311324,0.0002479,70.0006,113.9147,254.6069,105.4816,-3.9675e-05,-5.66e-06,0.0,0 STARLINK-6352,1 56782U 23078R   24026.56501874 -.00000566  00000-0 -39675-4 0  9991,2 56782  70.0006 113.9147 0002479 254.6069 105.4816 14.98311324 37363,6950.251,96.108,573.839,570.393,0.0
56782.0,STARLINK-6352,PAYLOAD,2024-01-27 11:59:30,14.98308466,0.0002927,69.999,111.5568,267.1877,92.8947,0.00022525,2.594e-05,0.0,0 STARLINK-6352,1 56782U 23078R   24027.49965319  .00002594  00000-0  22525-3 0  9998,2 56782  69.9990 111.5568 0002927 267.1877  92.8947 14.98308466 37768,6950.259,96.108,574.159,570.09,0.0
56782.0,STARLINK-6352,PAYLOAD,2024-01-27 13:35:37,14.98311801,0.000282,69.9993,111.3889,263.5477,96.5361,0.00026348,3.051e-05,0.0,0 STARLINK-6352,1 56782U 23078R   24027.56641064  .00003051  00000-0  26348-3 0  9990,2 56782  69.9993 111.3889 0002820 263.5477  96.5361 14.98311801 37514,6950.249,96.108,574.074,570.154,0.0
56782.0,STARLINK-6352,PAYLOAD,2024-01-27 15:11:45,14.9831294,0.0002803,69.9994,111.2209,262.4971,97.5869,0.00027042,3.134e-05,0.0,0 STARLINK-6352,1 56782U 23078R   24027.63317047  .00003134  00000-0  27042-3 0  9993,2 56782  69.9994 111.2209 0002803 262.4971  97.5869 14.98312940 37528,6950.246,96.108,574.059,570.162,0.0
56782.0,STARLINK-6352,PAYLOAD,2024-01-28 12:01:31,14.98322414,0.0002683,69.9998,109.0328,257.6476,102.4382,9.0129e-05,9.82e-06,0.0,0 STARLINK-6352,1 56782U 23078R   24028.50105659  .00000982  00000-0  90129-4 0  9999,2 56782  69.9998 109.0328 0002683 257.6476 102.4382 14.98322414 37917,6950.216,96.107,573.946,570.217,0.0
56782.0,STARLINK-6352,PAYLOAD,2024-01-28 13:37:39,14.98323538,0.0002656,69.9999,108.8647,256.3548,103.7316,0.00010201,1.124e-05,0.0,0 STARLINK-6352,1 56782U 23078R   24028.56781577  .00001124  00000-0  10201-3 0  9995,2 56782  69.9999 108.8647 0002656 256.3548 103.7316 14.98323538 37666,6950.213,96.107,573.924,570.232,0.0
56782.0,STARLINK-6352,PAYLOAD,2024-01-28 15:13:47,14.98323953,0.0002655,69.9999,108.6965,256.5529,103.5334,0.00010371,1.144e-05,0.0,0 STARLINK-6352,1 56782U 23078R   24028.63457571  .00001144  00000-0  10371-3 0  9997,2 56782  69.9999 108.6965 0002655 256.5529 103.5334 14.98323953 37677,6950.212,96.107,573.922,570.231,0.0
56782.0,STARLINK-6352,PAYLOAD,2024-01-29 12:03:31,14.98335891,0.0002676,69.9998,106.5079,259.3505,100.7352,6.2686e-05,6.55e-06,0.0,0 STARLINK-6352,1 56782U 23078R   24029.50244877  .00000655  00000-0  62686-4 0  9990,2 56782  69.9998 106.5079 0002676 259.3505 100.7352 14.98335891 38064,6950.175,96.107,573.9,570.18,0.0
